OBJECT_NAME,OBJECT_ID,EPOCH,MEAN_MOTION,ECCENTRICITY,INCLINATION,RA_OF_ASC_NODE,ARG_OF_PERICENTER,MEAN_ANOMALY,EPHEMERIS_TYPE,CLASSIFICATION_TYPE,NORAD_CAT_ID,ELEMENT_SET_NO,REV_AT_EPOCH,BSTAR,MEAN_MOTION_DOT,MEAN_MOTION_DDOT
H2SAT (HEINRICH HERTZ),2023-093A,2026-06-25T07:28:10.234848,1.00269986,.0000848,0.0482,107.4304,17.0766,261.6799,0,U,57213,999,1099,0,.11E-6,0
SYRACUSE 4B,2023-093B,2026-06-27T01:41:38.729760,1.00268400,.00004568,0.0057,99.0122,61.9682,133.1490,0,U,57214,999,706,0,-.43E-6,0
JUPITER 3 (ECHOSTAR 24),2023-108A,2026-06-27T11:58:28.883424,1.00269973,.00011478,0.0218,12.9154,80.5808,266.5169,0,U,57479,999,1074,0,0,0
GALAXY 37 (G-37),2023-112A,2026-06-27T15:19:27.636384,1.00272133,.00022549,0.0170,56.5620,37.1757,284.8739,0,U,57493,999,1064,0,.6E-6,0
LUDI TANCE-4 01A,2023-120A,2026-06-28T00:54:31.320000,1.00267916,.0001164,15.0927,193.6961,8.9657,176.6802,0,U,57624,999,1065,0,-.154E-5,0
TJS-10,2023-169A,2026-06-27T18:44:38.036256,1.00271521,.0003978,2.5712,80.3760,103.1652,105.9539,0,U,58204,999,964,0,-.24E-5,0
ZHONGXING-6E,2023-172A,2026-06-28T01:01:53.114304,1.00274403,.0002638,0.0333,266.3258,187.3561,313.4400,0,U,58253,999,976,0,-.35E-5,0
YAOGAN-41,2023-197A,2026-06-27T23:42:09.883296,1.00276094,.0014212,3.1090,313.3070,195.3895,246.0956,0,U,58582,999,943,0,-.347E-5,0
OVZON-3,2024-003A,2026-06-27T23:39:06.232320,1.00262404,.0000325,0.0171,43.4108,211.9996,75.1439,0,U,58698,999,755,0,0,0
INSAT-3DS,2024-033A,2026-06-27T19:05:46.866912,1.00270531,.00014893,0.0631,99.7881,346.8209,197.8056,0,U,58990,999,4717,0,-.144E-5,0
MERAH PUTIH 2,2024-035A,2026-06-27T23:29:04.070112,1.00273578,.00014595,0.0169,66.9478,31.2200,283.1377,0,U,58995,999,869,0,-.346E-5,0
TJS-11,2024-037A,2026-06-28T00:09:08.108640,1.00271188,.0003552,4.1850,327.2161,110.5302,313.3084,0,U,59020,999,869,0,-.349E-5,0
HULIANWAN GAOGUI-01 (HG-01),2024-040A,2026-06-27T22:55:56.933184,1.00272077,.00028083,0.0708,329.9382,77.0163,246.6736,0,U,59069,999,743,0,.168E-5,0
EUTELSAT 36D,2024-059A,2026-06-27T21:57:08.536896,1.00270243,.00004067,0.0249,24.5464,88.9121,167.6859,0,U,59346,999,825,0,0,0
PAKSAT-MM1,2024-104A,2026-06-27T21:58:43.387680,1.00273168,.00027885,0.0469,211.6525,221.2300,210.9761,0,U,59915,999,763,0,.165E-5,0
ASTRA 1P (SES-24),2024-115A,2026-06-27T21:09:10.622016,1.00279036,.00001775,0.0571,341.8405,65.8637,204.7932,0,U,60086,999,730,0,.132E-5,0
GOES 19,2024-119A,2026-06-27T22:24:55.844352,1.00270954,.00005857,0.0116,102.6682,39.9011,34.5039,0,U,60133,999,707,0,-.237E-5,0
ZHONGXING-3A,2024-122A,2026-06-26T07:54:12.065184,1.00272295,.0001532,0.0422,126.7500,356.6470,11.1904,0,U,60179,999,740,0,-.302E-5,0
TURKSAT 6A,2024-127A,2026-06-27T18:16:09.686208,1.00268857,.00025215,0.0642,211.9153,290.2067,89.8109,0,U,60233,999,712,0,.158E-5,0
HULIANWAN GAOGUI-02 (HG-02),2024-135A,2026-06-26T23:32:51.493920,1.00269273,.00074876,0.0436,354.3395,16.2160,50.8501,0,U,60327,999,759,0,-.162E-5,0
ZHONGXING-4A,2024-151A,2026-06-27T21:37:23.731968,1.00268761,.00005962,1.2873,270.6846,215.0661,232.8015,0,U,60606,999,686,0,-.349E-5,0
HULIANWAN GAOGUI-03 (HG-03),2024-181A,2026-06-27T05:17:46.543776,1.00274533,.0001514,0.0467,357.7458,90.0159,189.8965,0,U,61503,999,692,0,-.23E-5,0
DSN-3 (KIRAMEKI-3),2024-198A,2026-06-27T21:44:45.526272,1.00273576,.00010243,0.0055,27.0457,78.5019,280.7014,0,U,61733,999,602,0,-.238E-5,0
KOREASAT 6A,2024-206A,2026-06-27T23:33:48.648384,1.00269169,.00009123,0.0191,37.5636,49.6013,298.4014,0,U,61910,999,594,0,0,0
OPTUS-X (ADS-01),2024-212A,2026-06-27T21:48:15.191424,1.00271916,.00022967,0.0184,14.6466,115.3123,269.4998,0,U,62006,999,586,0,-.132E-5,0
GSAT-N2 (GSAT-20),2024-214A,2026-06-27T22:35:11.458176,1.00272438,.00022422,0.0615,101.1376,346.5214,235.1199,0,U,62028,999,600,0,-.8E-7,0
SXM-9,2024-234A,2026-06-27T22:22:03.618912,1.00273807,.00048614,0.0139,334.9359,345.0366,206.4219,0,U,62259,999,568,0,-.194E-5,0
TJS-12,2024-246A,2026-06-27T18:20:10.513248,1.00274826,.00023923,0.6476,300.1940,103.8351,293.3958,0,U,62374,999,567,0,-.218E-5,0
NUVIEW ALPHA,2024-252B,2026-06-27T12:06:39.117888,1.00269929,.00011903,0.0509,31.4098,30.0506,312.7294,0,U,62455,999,392,0,-.204E-5,0
AGILA,2024-252C,2026-06-27T21:46:52.822848,1.00275633,.00012748,0.0612,129.0873,344.0195,281.7859,0,U,62456,999,526,0,-.169E-5,0
NUVIEW BRAVO,2024-252D,2026-06-27T12:06:31.629600,1.00272064,.00021321,0.0692,159.5935,329.7040,244.8503,0,U,62457,999,389,0,-.203E-5,0
