H2SAT (HEINRICH HERTZ)  
1 57213U 23093A   26176.31122957  .00000011  00000+0  00000+0 0  9997
2 57213   0.0482 107.4304 0000848  17.0766 261.6799  1.00269986 10990
SYRACUSE 4B             
1 57214U 23093B   26178.07058715 -.00000043  00000+0  00000+0 0  9999
2 57214   0.0057  99.0122 0000456  61.9682 133.1490  1.00268400  7068
JUPITER 3 (ECHOSTAR 24) 
1 57479U 23108A   26178.49894541  .00000000  00000+0  00000+0 0  9992
2 57479   0.0218  12.9154 0001147  80.5808 266.5169  1.00269973 10743
GALAXY 37 (G-37)        
1 57493U 23112A   26178.63851431  .00000060  00000+0  00000+0 0  9996
2 57493   0.0170  56.5620 0002254  37.1757 284.8739  1.00272133 10646
LUDI TANCE-4 01A        
1 57624U 23120A   26179.03786250 -.00000154  00000+0  00000+0 0  9997
2 57624  15.0927 193.6961 0001164   8.9657 176.6802  1.00267916 10656
TJS-10                  
1 58204U 23169A   26178.78099579 -.00000240  00000+0  00000+0 0  9993
2 58204   2.5712  80.3760 0003978 103.1652 105.9539  1.00271521  9647
ZHONGXING-6E            
1 58253U 23172A   26179.04297586 -.00000350  00000+0  00000+0 0  9991
2 58253   0.0333 266.3258 0002638 187.3561 313.4400  1.00274403  9764
YAOGAN-41               
1 58582U 23197A   26178.98761439 -.00000347  00000+0  00000+0 0  9994
2 58582   3.1090 313.3070 0014212 195.3895 246.0956  1.00276094  9437
OVZON-3                 
1 58698U 24003A   26178.98548880  .00000000  00000+0  00000+0 0  9997
2 58698   0.0171  43.4108 0000325 211.9996  75.1439  1.00262404  7559
INSAT-3DS               
1 58990U 24033A   26178.79568133 -.00000144  00000+0  00000+0 0  9997
2 58990   0.0631  99.7881 0001489 346.8209 197.8056  1.00270531 47173
MERAH PUTIH 2           
1 58995U 24035A   26178.97851933 -.00000346  00000+0  00000+0 0  9991
2 58995   0.0169  66.9478 0001459  31.2200 283.1377  1.00273578  8698
TJS-11                  
1 59020U 24037A   26179.00634385 -.00000349  00000+0  00000+0 0  9991
2 59020   4.1850 327.2161 0003552 110.5302 313.3084  1.00271188  8698
HULIANWAN GAOGUI-01 (H*)
1 59069U 24040A   26178.95552006  .00000168  00000+0  00000+0 0  9998
2 59069   0.0708 329.9382 0002808  77.0163 246.6736  1.00272077  7438
EUTELSAT 36D            
1 59346U 24059A   26178.91468214  .00000000  00000+0  00000+0 0  9994
2 59346   0.0249  24.5464 0000406  88.9121 167.6859  1.00270243  8254
PAKSAT-MM1              
1 59915U 24104A   26178.91577995  .00000165  00000+0  00000+0 0  9996
2 59915   0.0469 211.6525 0002788 221.2300 210.9761  1.00273168  7637
ASTRA 1P (SES-24)       
1 60086U 24115A   26178.88137294  .00000132  00000+0  00000+0 0  9993
2 60086   0.0571 341.8405 0000177  65.8637 204.7932  1.00279036  7305
GOES 19                 
1 60133U 24119A   26178.93397968 -.00000237  00000+0  00000+0 0  9999
2 60133   0.0116 102.6682 0000585  39.9011  34.5039  1.00270954  7075
ZHONGXING-3A            
1 60179U 24122A   26177.32930631 -.00000302  00000+0  00000+0 0  9998
2 60179   0.0422 126.7500 0001532 356.6470  11.1904  1.00272295  7401
TURKSAT 6A              
1 60233U 24127A   26178.76122322  .00000158  00000+0  00000+0 0  9991
2 60233   0.0642 211.9153 0002521 290.2067  89.8109  1.00268857  7128
HULIANWAN GAOGUI-02 (H*)
1 60327U 24135A   26177.98115155 -.00000162  00000+0  00000+0 0  9999
2 60327   0.0436 354.3395 0007487  16.2160  50.8501  1.00269273  7597
ZHONGXING-4A            
1 60606U 24151A   26178.90096912 -.00000349  00000+0  00000+0 0  9996
2 60606   1.2873 270.6846 0000596 215.0661 232.8015  1.00268761  6867
HULIANWAN GAOGUI-03 (H*)
1 61503U 24181A   26178.22067759 -.00000230  00000+0  00000+0 0  9997
2 61503   0.0467 357.7458 0001514  90.0159 189.8965  1.00274533  6926
DSN-3 (KIRAMEKI-3)      
1 61733U 24198A   26178.90608248 -.00000238  00000+0  00000+0 0  9997
2 61733   0.0055  27.0457 0001024  78.5019 280.7014  1.00273576  6025
KOREASAT 6A             
1 61910U 24206A   26178.98181306  .00000000  00000+0  00000+0 0  9999
2 61910   0.0191  37.5636 0000912  49.6013 298.4014  1.00269169  5945
OPTUS-X (ADS-01)        
1 62006U 24212A   26178.90850916 -.00000132  00000+0  00000+0 0  9992
2 62006   0.0184  14.6466 0002296 115.3123 269.4998  1.00271916  5864
GSAT-N2 (GSAT-20)       
1 62028U 24214A   26178.94110484 -.00000008  00000+0  00000+0 0  9993
2 62028   0.0615 101.1376 0002242 346.5214 235.1199  1.00272438  6009
SXM-9                   
1 62259U 24234A   26178.93198633 -.00000194  00000+0  00000+0 0  9998
2 62259   0.0139 334.9359 0004861 345.0366 206.4219  1.00273807  5682
TJS-12                  
1 62374U 24246A   26178.76401057 -.00000218  00000+0  00000+0 0  9994
2 62374   0.6476 300.1940 0002392 103.8351 293.3958  1.00274826  5678
NUVIEW ALPHA            
1 62455U 24252B   26178.50461942 -.00000204  00000+0  00000+0 0  9997
2 62455   0.0509  31.4098 0001190  30.0506 312.7294  1.00269929  3928
AGILA                   
1 62456U 24252C   26178.90755582 -.00000169  00000+0  00000+0 0  9998
2 62456   0.0612 129.0873 0001274 344.0195 281.7859  1.00275633  5264
NUVIEW BRAVO            
1 62457U 24252D   26178.50453275 -.00000203  00000+0  00000+0 0  9998
2 62457   0.0692 159.5935 0002132 329.7040 244.8503  1.00272064  3891
